[{"OBJECT_NAME":"STARLINK-5288","OBJECT_ID":"2023-010AQ","EPOCH":"2026-03-09T22:12:42.597792","MEAN_MOTION":14.98341894,"ECCENTRICITY":0.00026057,"INCLINATION":70.0036,"RA_OF_ASC_NODE":4.0244,"ARG_OF_PERICENTER":234.2915,"MEAN_ANOMALY":125.8002,"EPHEMERIS_TYPE":0,"CLASSIFICATION_TYPE":"U","NORAD_CAT_ID":55307,"ELEMENT_SET_NO":999,"REV_AT_EPOCH":17380,"BSTAR":2.9119841e-5,"MEAN_MOTION_DOT":2.55e-6,"MEAN_MOTION_DDOT":0},{"OBJECT_NAME":"CZ-2C DEB","OBJECT_ID":"2014-059C","EPOCH":"2026-03-09T21:10:12.095616","MEAN_MOTION":14.89082619,"ECCENTRICITY":0.00574388,"INCLINATION":98.186,"RA_OF_ASC_NODE":178.5961,"ARG_OF_PERICENTER":246.4472,"MEAN_ANOMALY":113.0704,"EPHEMERIS_TYPE":0,"CLASSIFICATION_TYPE":"U","NORAD_CAT_ID":40263,"ELEMENT_SET_NO":999,"REV_AT_EPOCH":60828,"BSTAR":0.0019374157,"MEAN_MOTION_DOT":0.00018813,"MEAN_MOTION_DDOT":0}]
